PAKSAT-1R               
1 37779U 11042A   26193.78308711  .00000153  00000+0  00000+0 0  9994
2 37779   0.7529  84.3610 0003069 349.3486 176.8798  1.00267236 54737
SES-2                   
1 37809U 11049A   26193.83091428 -.00000196  00000+0  00000+0 0  9993
2 37809   0.1217  91.3400 0002668  21.4630  30.0419  1.00270676 54224
ARABSAT-5C              
1 37810U 11049B   26193.84489405  .00000122  00000+0  00000+0 0  9990
2 37810   0.0485  14.7224 0003502 112.5897 127.5658  1.00270428 54299
EUTELSAT 7 WEST A       
1 37816U 11051A   26193.63278095 -.00000060  00000+0  00000+0 0  9999
2 37816   0.0643 341.6249 0004542 145.2106  24.1652  1.00270546 54131
QUETZSAT 1              
1 37826U 11054A   26193.83290764 -.00000242  00000+0  00000+0 0  9994
2 37826   0.0104  19.8295 0002541 101.2734  32.4713  1.00271722 50138
INTELSAT 18 (IS-18)     
1 37834U 11056A   26193.81245419  .00000052  00000+0  00000+0 0  9998
2 37834   0.0152 311.6694 0001621 172.7670 278.7423  1.00269589 54063
EUTELSAT 16A            
1 37836U 11057A   26193.84489405  .00000103  00000+0  00000+0 0  9996
2 37836   0.0384  13.2601 0005828  95.0292 142.5926  1.00272947  7599
VIASAT-1                
1 37843U 11059A   26193.61146086  .00000000  00000+0  00000+0 0  9992
2 37843   0.0249  39.7984 0002133  71.4942 284.2353  1.00271074 47570
ASIASAT 7               
1 37933U 11069A   26194.01161652 -.00000335  00000+0  00000+0 0  9996
2 37933   0.0155  41.3056 0001197  40.8461 318.4294  1.00273023 45118
BEIDOU-2 IGSO-5         
1 37948U 11073A   26183.72937883 -.00000128  00000+0  00000+0 0  9990
2 37948  47.6496 271.3544 0114527 222.0502 141.5350  1.00270596 53296
LUCH-5A                 
1 37951U 11074B   26193.88122573 -.00000058  00000+0  00000+0 0  9997
2 37951   8.8166  73.4291 0002562  60.1843 281.3705  1.00272914 53302
NIGCOMSAT 1R            
1 38014U 11077A   26193.78525463  .00000145  00000+0  00000+0 0  9991
2 38014   0.0261 123.4966 0002640 225.0220 267.3361  1.00269496 53219
WGS F4 (USA 233)        
1 38070U 12003A   26193.79434078  .00000000  00000+0  00000+0 0  9995
2 38070   0.0280  48.4445 0000823 112.2050 144.4204  1.00270127 44404
SES-4                   
1 38087U 12007A   26193.84376358 -.00000169  00000+0  00000+0 0  9996
2 38087   0.0194  62.7268 0002444  53.5379  96.2256  1.00272360 52489
BEIDOU-2 G5             
1 38091U 12008A   26193.85972200  .00000053  00000+0  00000+0 0  9992
2 38091   3.6342  69.5300 0007367 269.3254 320.0646  1.00269596 52622
MUOS-1                  
1 38093U 12009A   26193.61449420 -.00000132  00000+0  00000+0 0  9991
2 38093   5.5264  47.1214 0057051   3.3467   1.3013  1.00271963 52708
INTELSAT 22 (IS-22)     
1 38098U 12011A   26193.86275079  .00000000  00000+0  00000+0 0  9996
2 38098   0.0423  71.7082 0001958  62.1117 179.6104  1.00271264  7441
APSTAR-7                
1 38107U 12013A   26194.02594523 -.00000103  00000+0  00000+0 0  9991
2 38107   0.0159  90.3143 0002966  35.1490 251.2915  1.00271088 52066
YAHSAT 1B               
1 38245U 12016A   26193.78620795  .00000126  00000+0  00000+0 0  9994
2 38245   0.0883  88.5120 0003571  48.4597 124.3294  1.00269879 45860
AEHF-2 (USA 235)        
1 38254U 12019A   26193.84489023 -.00000141  00000+0  00000+0 0  9999
2 38254   6.7080  57.2949 0002221  54.3381 106.7633  1.00272415  7243
JCSAT-13                
1 38331U 12023A   26193.80136080 -.00000357  00000+0  00000+0 0  9997
2 38331   0.0116  56.7108 0002255  58.4723 228.0054  1.00271105 51798
VINASAT-2               
1 38332U 12023B   26193.80292081 -.00000329  00000+0  00000+0 0  9991
2 38332   0.0144 353.9668 0002100 120.8088 236.8123  1.00271431 46914
NIMIQ 6                 
1 38342U 12026A   26193.61622755 -.00000173  00000+0  00000+0 0  9996
2 38342   0.0160   8.9422 0002518 105.1885 307.1124  1.00271407 50665
ZHONGXING-2A            
1 38352U 12028A   26193.89871846 -.00000295  00000+0  00000+0 0  9991
2 38352   1.5174  83.5541 0001408  35.5537 233.4731  1.00271521 51556
INTELSAT 19 (IS-19)     
1 38356U 12030A   26193.80968086 -.00000057  00000+0  00000+0 0  9998
2 38356   0.0128  48.9370 0003062  76.4313 262.8093  1.00271151 50704
ECHOSTAR 17             
1 38551U 12035A   26193.61302087 -.00000074  00000+0  00000+0 0  9991
2 38551   0.0035 100.7578 0001964   6.5571 296.7722  1.00268928 51315
METEOSAT-10 (MSG-3)     
1 38552U 12035B   26193.77687463 -.00000012  00000+0  00000+0 0  9995
2 38552   4.7299  60.8910 0001080  17.5629 131.9395  1.00270301 51112
SES-5                   
1 38652U 12036A   26193.38239362  .00000035  00000+0  00000+0 0  9999
2 38652   0.0464 319.3864 0001880 153.8533 319.6709  1.00270430 44717
INTELSAT 20 (IS-20)     
1 38740U 12043A   26193.75808811 -.00000024  00000+0  00000+0 0  9996
2 38740   0.0134  64.6252 0001148 103.9098 103.5161  1.00270870 51009
HYLAS 2                 
1 38741U 12043B   26193.83377431 -.00000261  00000+0  00000+0 0  9998
2 38741   2.4909  80.7558 0002352  56.5361  21.0099  1.00271094 51034
INTELSAT 21 (IS-21)     
1 38749U 12045A   26193.83663432 -.00000286  00000+0  00000+0 0  9994
2 38749   0.0178  32.8621 0001720  87.2852  53.7723  1.00275518 50789
ASTRA 2F                
1 38778U 12051A   26193.78864200  .00000149  00000+0  00000+0 0  9990
2 38778   0.0595 238.6488 0002244 301.9012  62.2222  1.00264970 41393
