OBJECT_NAME,OBJECT_ID,EPOCH,MEAN_MOTION,ECCENTRICITY,INCLINATION,RA_OF_ASC_NODE,ARG_OF_PERICENTER,MEAN_ANOMALY,EPHEMERIS_TYPE,CLASSIFICATION_TYPE,NORAD_CAT_ID,ELEMENT_SET_NO,REV_AT_EPOCH,BSTAR,MEAN_MOTION_DOT,MEAN_MOTION_DDOT
PAKSAT-1R,2011-042A,2026-07-12T18:47:38.726304,1.00267236,.0003069,0.7529,84.3610,349.3486,176.8798,0,U,37779,999,5473,0,.153E-5,0
SES-2,2011-049A,2026-07-12T19:56:30.993792,1.00270676,.0002668,0.1217,91.3400,21.4630,30.0419,0,U,37809,999,5422,0,-.196E-5,0
ARABSAT-5C,2011-049B,2026-07-12T20:16:38.845920,1.00270428,.0003502,0.0485,14.7224,112.5897,127.5658,0,U,37810,999,5429,0,.122E-5,0
EUTELSAT 7 WEST A,2011-051A,2026-07-12T15:11:12.274080,1.00270546,.0004542,0.0643,341.6249,145.2106,24.1652,0,U,37816,999,5413,0,-.6E-6,0
QUETZSAT 1,2011-054A,2026-07-12T19:59:23.220096,1.00271722,.0002541,0.0104,19.8295,101.2734,32.4713,0,U,37826,999,5013,0,-.242E-5,0
INTELSAT 18 (IS-18),2011-056A,2026-07-12T19:29:56.042016,1.00269589,.0001621,0.0152,311.6694,172.7670,278.7423,0,U,37834,999,5406,0,.52E-6,0
EUTELSAT 16A,2011-057A,2026-07-12T20:16:38.845920,1.00272947,.0005828,0.0384,13.2601,95.0292,142.5926,0,U,37836,999,759,0,.103E-5,0
VIASAT-1,2011-059A,2026-07-12T14:40:30.218304,1.00271074,.0002133,0.0249,39.7984,71.4942,284.2353,0,U,37843,999,4757,0,0,0
ASIASAT 7,2011-069A,2026-07-13T00:16:43.667328,1.00273023,.0001197,0.0155,41.3056,40.8461,318.4294,0,U,37933,999,4511,0,-.335E-5,0
BEIDOU-2 IGSO-5,2011-073A,2026-07-02T17:30:18.330912,1.00270596,.01145273,47.6496,271.3544,222.0502,141.5350,0,U,37948,999,5329,0,-.128E-5,0
LUCH-5A,2011-074B,2026-07-12T21:08:57.903072,1.00272914,.0002562,8.8166,73.4291,60.1843,281.3705,0,U,37951,999,5330,0,-.58E-6,0
NIGCOMSAT 1R,2011-077A,2026-07-12T18:50:46.000032,1.00269496,.000264,0.0261,123.4966,225.0220,267.3361,0,U,38014,999,5321,0,.145E-5,0
WGS F4 (USA 233),2012-003A,2026-07-12T19:03:51.043392,1.00270127,.0000823,0.0280,48.4445,112.2050,144.4204,0,U,38070,999,4440,0,0,0
SES-4,2012-007A,2026-07-12T20:15:01.173312,1.00272360,.0002444,0.0194,62.7268,53.5379,96.2256,0,U,38087,999,5248,0,-.169E-5,0
BEIDOU-2 G5,2012-008A,2026-07-12T20:37:59.980800,1.00269596,.0007367,3.6342,69.5300,269.3254,320.0646,0,U,38091,999,5262,0,.53E-6,0
MUOS-1,2012-009A,2026-07-12T14:44:52.298880,1.00271963,.0057051,5.5264,47.1214,3.3467,1.3013,0,U,38093,999,5270,0,-.132E-5,0
INTELSAT 22 (IS-22),2012-011A,2026-07-12T20:42:21.668256,1.00271264,.0001958,0.0423,71.7082,62.1117,179.6104,0,U,38098,999,744,0,0,0
APSTAR-7,2012-013A,2026-07-13T00:37:21.667872,1.00271088,.0002966,0.0159,90.3143,35.1490,251.2915,0,U,38107,999,5206,0,-.103E-5,0
YAHSAT 1B,2012-016A,2026-07-12T18:52:08.366880,1.00269879,.0003571,0.0883,88.5120,48.4597,124.3294,0,U,38245,999,4586,0,.126E-5,0
AEHF-2 (USA 235),2012-019A,2026-07-12T20:16:38.515872,1.00272415,.0002221,6.7080,57.2949,54.3381,106.7633,0,U,38254,999,724,0,-.141E-5,0
JCSAT-13,2012-023A,2026-07-12T19:13:57.573120,1.00271105,.0002255,0.0116,56.7108,58.4723,228.0054,0,U,38331,999,5179,0,-.357E-5,0
VINASAT-2,2012-023B,2026-07-12T19:16:12.357984,1.00271431,.00021,0.0144,353.9668,120.8088,236.8123,0,U,38332,999,4691,0,-.329E-5,0
NIMIQ 6,2012-026A,2026-07-12T14:47:22.060320,1.00271407,.0002518,0.0160,8.9422,105.1885,307.1124,0,U,38342,999,5066,0,-.173E-5,0
ZHONGXING-2A,2012-028A,2026-07-12T21:34:09.274944,1.00271521,.0001408,1.5174,83.5541,35.5537,233.4731,0,U,38352,999,5155,0,-.295E-5,0
INTELSAT 19 (IS-19),2012-030A,2026-07-12T19:25:56.426304,1.00271151,.0003062,0.0128,48.9370,76.4313,262.8093,0,U,38356,999,5070,0,-.57E-6,0
ECHOSTAR 17,2012-035A,2026-07-12T14:42:45.003168,1.00268928,.0001964,0.0035,100.7578,6.5571,296.7722,0,U,38551,999,5131,0,-.74E-6,0
METEOSAT-10 (MSG-3),2012-035B,2026-07-12T18:38:41.968032,1.00270301,.000108,4.7299,60.8910,17.5629,131.9395,0,U,38552,999,5111,0,-.12E-6,0
SES-5,2012-036A,2026-07-12T09:10:38.808768,1.00270430,.00018809,0.0464,319.3864,153.8533,319.6709,0,U,38652,999,4471,0,.35E-6,0
INTELSAT 20 (IS-20),2012-043A,2026-07-12T18:11:38.812704,1.00270870,.0001148,0.0134,64.6252,103.9098,103.5161,0,U,38740,999,5100,0,-.24E-6,0
HYLAS 2,2012-043B,2026-07-12T20:00:38.100384,1.00271094,.0002352,2.4909,80.7558,56.5361,21.0099,0,U,38741,999,5103,0,-.261E-5,0
INTELSAT 21 (IS-21),2012-045A,2026-07-12T20:04:45.205248,1.00275518,.000172,0.0178,32.8621,87.2852,53.7723,0,U,38749,999,5078,0,-.286E-5,0
ASTRA 2F,2012-051A,2026-07-12T18:55:38.668800,1.00264970,.0002244,0.0595,238.6488,301.9012,62.2222,0,U,38778,999,4139,0,.149E-5,0
